{
  "type": "FeatureCollection",
  "features": [
    {
      "type": "Feature",
      "properties": {
        "norad_id": 40797,
        "name": "COSMOS 2251 DEB",
        "group": "cosmos-2251-debris",
        "lat": 10.296024712950285,
        "lon": 106.82688987103201,
        "alt_km": 486.30617942380013,
        "timestamp": "2025-12-08T15:42:50.194568+00:00",
        "meta_object_name": "COSMOS 2251 DEB",
        "meta_object_id": "1993-036BWA",
        "meta_epoch": "2025-11-19T18:43:16.602528",
        "meta_mean_motion": 15.10509474,
        "meta_eccentricity": 0.00703947,
        "meta_inclination": 73.92,
        "meta_ra_of_asc_node": 143.0892,
        "meta_arg_of_pericenter": 60.6639,
        "meta_mean_anomaly": 300.156,
        "meta_ephemeris_type": 0,
        "meta_classification_type": "U",
        "meta_norad_cat_id": 40797,
        "meta_element_set_no": 999,
        "meta_rev_at_epoch": 64297,
        "meta_bstar": 0.00072810385,
        "meta_mean_motion_dot": 0.00012707,
        "meta_mean_motion_ddot": 0,
        "tle_line1": "1 40797U 93036BWA 25323.78005327  .00012707  00000+0  72810-3 0  9992",
        "tle_line2": "2 40797  73.9200 143.0892 0070394  60.6639 300.1560 15.10509474642979"
      },
      "geometry": {
        "type": "Point",
        "coordinates": [
          106.82688987103201,
          10.296024712950285
        ]
      }
    },
    {
      "type": "Feature",
      "properties": {
        "norad_id": 40799,
        "name": "COSMOS 2251 DEB",
        "group": "cosmos-2251-debris",
        "lat": -51.39416181730161,
        "lon": -52.14515950263157,
        "alt_km": 618.2055244620342,
        "timestamp": "2025-12-08T15:42:50.194578+00:00",
        "meta_object_name": "COSMOS 2251 DEB",
        "meta_object_id": "1993-036BWC",
        "meta_epoch": "2025-12-03T15:56:34.043424",
        "meta_mean_motion": 14.96530915,
        "meta_eccentricity": 0.0118644,
        "meta_inclination": 73.9247,
        "meta_ra_of_asc_node": 116.8388,
        "meta_arg_of_pericenter": 0.7827,
        "meta_mean_anomaly": 359.3519,
        "meta_ephemeris_type": 0,
        "meta_classification_type": "U",
        "meta_norad_cat_id": 40799,
        "meta_element_set_no": 999,
        "meta_rev_at_epoch": 49841,
        "meta_bstar": 0.00050356325,
        "meta_mean_motion_dot": 6.569e-05,
        "meta_mean_motion_ddot": 0,
        "tle_line1": "1 40799U 93036BWC 25337.66428291  .00006569  00000+0  50356-3 0  9995",
        "tle_line2": "2 40799  73.9247 116.8388 0118644   0.7827 359.3519 14.96530915498410"
      },
      "geometry": {
        "type": "Point",
        "coordinates": [
          -52.14515950263157,
          -51.39416181730161
        ]
      }
    },
    {
      "type": "Feature",
      "properties": {
        "norad_id": 40802,
        "name": "COSMOS 2251 DEB",
        "group": "cosmos-2251-debris",
        "lat": -21.14157827804834,
        "lon": -12.618713460453794,
        "alt_km": 618.6622759176817,
        "timestamp": "2025-12-08T15:42:50.194588+00:00",
        "meta_object_name": "COSMOS 2251 DEB",
        "meta_object_id": "1993-036BWF",
        "meta_epoch": "2025-12-07T04:40:18.782112",
        "meta_mean_motion": 14.77524625,
        "meta_eccentricity": 0.00633068,
        "meta_inclination": 74.039,
        "meta_ra_of_asc_node": 163.8903,
        "meta_arg_of_pericenter": 263.7276,
        "meta_mean_anomaly": 95.6686,
        "meta_ephemeris_type": 0,
        "meta_classification_type": "U",
        "meta_norad_cat_id": 40802,
        "meta_element_set_no": 999,
        "meta_rev_at_epoch": 64327,
        "meta_bstar": 0.0010813735,
        "meta_mean_motion_dot": 7.951e-05,
        "meta_mean_motion_ddot": 0,
        "tle_line1": "1 40802U 93036BWF 25341.19466183  .00007951  00000+0  10814-2 0  9995",
        "tle_line2": "2 40802  74.0390 163.8903 0063306 263.7276  95.6686 14.77524625643275"
      },
      "geometry": {
        "type": "Point",
        "coordinates": [
          -12.618713460453794,
          -21.14157827804834
        ]
      }
    },
    {
      "type": "Feature",
      "properties": {
        "norad_id": 40803,
        "name": "COSMOS 2251 DEB",
        "group": "cosmos-2251-debris",
        "lat": 59.13762165497503,
        "lon": 88.27164745226067,
        "alt_km": 735.308221080235,
        "timestamp": "2025-12-08T15:42:50.194598+00:00",
        "meta_object_name": "COSMOS 2251 DEB",
        "meta_object_id": "1993-036BWG",
        "meta_epoch": "2025-12-05T22:55:29.451072",
        "meta_mean_motion": 14.51792027,
        "meta_eccentricity": 0.00362816,
        "meta_inclination": 74.0122,
        "meta_ra_of_asc_node": 64.6912,
        "meta_arg_of_pericenter": 281.8159,
        "meta_mean_anomaly": 77.8934,
        "meta_ephemeris_type": 0,
        "meta_classification_type": "U",
        "meta_norad_cat_id": 40803,
        "meta_element_set_no": 999,
        "meta_rev_at_epoch": 58654,
        "meta_bstar": 0.00062935795,
        "meta_mean_motion_dot": 2.525e-05,
        "meta_mean_motion_ddot": 0,
        "tle_line1": "1 40803U 93036BWG 25339.95520198  .00002525  00000+0  62936-3 0  9999",
        "tle_line2": "2 40803  74.0122  64.6912 0036281 281.8159  77.8934 14.51792027586549"
      },
      "geometry": {
        "type": "Point",
        "coordinates": [
          88.27164745226067,
          59.13762165497503
        ]
      }
    },
    {
      "type": "Feature",
      "properties": {
        "norad_id": 40808,
        "name": "COSMOS 2251 DEB",
        "group": "cosmos-2251-debris",
        "lat": 65.64618178437833,
        "lon": -65.85686671699423,
        "alt_km": 661.7209970861995,
        "timestamp": "2025-12-08T15:42:50.194608+00:00",
        "meta_object_name": "COSMOS 2251 DEB",
        "meta_object_id": "1993-036BWM",
        "meta_epoch": "2025-12-07T11:32:50.781984",
        "meta_mean_motion": 14.67333401,
        "meta_eccentricity": 0.00098053,
        "meta_inclination": 74.0406,
        "meta_ra_of_asc_node": 155.6207,
        "meta_arg_of_pericenter": 192.7953,
        "meta_mean_anomaly": 198.9627,
        "meta_ephemeris_type": 0,
        "meta_classification_type": "U",
        "meta_norad_cat_id": 40808,
        "meta_element_set_no": 999,
        "meta_rev_at_epoch": 63542,
        "meta_bstar": 0.0025472163,
        "meta_mean_motion_dot": 0.00014393,
        "meta_mean_motion_ddot": 0,
        "tle_line1": "1 40808U 93036BWM 25341.48114331  .00014393  00000+0  25472-2 0  9992",
        "tle_line2": "2 40808  74.0406 155.6207 0009805 192.7953 198.9627 14.67333401635421"
      },
      "geometry": {
        "type": "Point",
        "coordinates": [
          -65.85686671699423,
          65.64618178437833
        ]
      }
    },
    {
      "type": "Feature",
      "properties": {
        "norad_id": 40810,
        "name": "COSMOS 2251 DEB",
        "group": "cosmos-2251-debris",
        "lat": 24.847189658904522,
        "lon": -105.10221897726332,
        "alt_km": 694.166182120649,
        "timestamp": "2025-12-08T15:42:50.194618+00:00",
        "meta_object_name": "COSMOS 2251 DEB",
        "meta_object_id": "1993-036BWP",
        "meta_epoch": "2025-12-08T00:11:40.367904",
        "meta_mean_motion": 14.58665131,
        "meta_eccentricity": 0.00187067,
        "meta_inclination": 74.0361,
        "meta_ra_of_asc_node": 83.7457,
        "meta_arg_of_pericenter": 235.7165,
        "meta_mean_anomaly": 124.2229,
        "meta_ephemeris_type": 0,
        "meta_classification_type": "U",
        "meta_norad_cat_id": 40810,
        "meta_element_set_no": 999,
        "meta_rev_at_epoch": 61614,
        "meta_bstar": 0.0011810187,
        "meta_mean_motion_dot": 5.493e-05,
        "meta_mean_motion_ddot": 0,
        "tle_line1": "1 40810U 93036BWP 25342.00810611  .00005493  00000+0  11810-2 0  9990",
        "tle_line2": "2 40810  74.0361  83.7457 0018706 235.7165 124.2229 14.58665131616141"
      },
      "geometry": {
        "type": "Point",
        "coordinates": [
          -105.10221897726332,
          24.847189658904522
        ]
      }
    },
    {
      "type": "Feature",
      "properties": {
        "norad_id": 46271,
        "name": "COSMOS 2251 DEB",
        "group": "cosmos-2251-debris",
        "lat": 37.96371479649133,
        "lon": -106.99882718480846,
        "alt_km": 707.0312655753933,
        "timestamp": "2025-12-08T15:42:50.194629+00:00",
        "meta_object_name": "COSMOS 2251 DEB",
        "meta_object_id": "1993-036BWT",
        "meta_epoch": "2025-12-08T00:10:45.560064",
        "meta_mean_motion": 14.51405587,
        "meta_eccentricity": 0.00404406,
        "meta_inclination": 74.0478,
        "meta_ra_of_asc_node": 87.1139,
        "meta_arg_of_pericenter": 209.4718,
        "meta_mean_anomaly": 150.4163,
        "meta_ephemeris_type": 0,
        "meta_classification_type": "U",
        "meta_norad_cat_id": 46271,
        "meta_element_set_no": 999,
        "meta_rev_at_epoch": 84573,
        "meta_bstar": 0.00060716032,
        "meta_mean_motion_dot": 2.42e-05,
        "meta_mean_motion_ddot": 0,
        "tle_line1": "1 46271U 93036BWT 25342.00747176  .00002420  00000+0  60716-3 0  9999",
        "tle_line2": "2 46271  74.0478  87.1139 0040440 209.4718 150.4163 14.51405587845731"
      },
      "geometry": {
        "type": "Point",
        "coordinates": [
          -106.99882718480846,
          37.96371479649133
        ]
      }
    }
  ]
}